{
  "type": "FeatureCollection",
  "features": [
    {
      "type": "Feature",
      "properties": {
        "norad_id": 29857,
        "name": "FENGYUN 1C DEB",
        "group": "fengyun-1c-debris",
        "lat": 68.58461045054214,
        "lon": -165.02579425666218,
        "alt_km": 1090.3866507109487,
        "timestamp": "2025-12-11T07:02:24.002019+00:00",
        "meta_object_name": "FENGYUN 1C DEB",
        "meta_object_id": "1999-025FB",
        "meta_epoch": "2025-12-10T23:33:08.528544",
        "meta_mean_motion": 13.81868584,
        "meta_eccentricity": 0.01928515,
        "meta_inclination": 98.423,
        "meta_ra_of_asc_node": 352.4989,
        "meta_arg_of_pericenter": 299.2163,
        "meta_mean_anomaly": 58.9827,
        "meta_ephemeris_type": 0,
        "meta_classification_type": "U",
        "meta_norad_cat_id": 29857,
        "meta_element_set_no": 999,
        "meta_rev_at_epoch": 94751,
        "meta_bstar": 0.002409892,
        "meta_mean_motion_dot": 2.938e-05,
        "meta_mean_motion_ddot": 0,
        "tle_line1": "1 29857U 99025FB  25344.98134871  .00002938  00000+0  24099-2 0  9992",
        "tle_line2": "2 29857  98.4230 352.4989 0192851 299.2163  58.9827 13.81868584947514"
      },
      "geometry": {
        "type": "Point",
        "coordinates": [
          -165.02579425666218,
          68.58461045054214
        ]
      }
    },
    {
      "type": "Feature",
      "properties": {
        "norad_id": 29858,
        "name": "FENGYUN 1C DEB",
        "group": "fengyun-1c-debris",
        "lat": 30.56321339967912,
        "lon": 81.46358943588619,
        "alt_km": 852.5364333827365,
        "timestamp": "2025-12-11T07:02:24.002030+00:00",
        "meta_object_name": "FENGYUN 1C DEB",
        "meta_object_id": "1999-025FC",
        "meta_epoch": "2025-12-09T13:08:49.517376",
        "meta_mean_motion": 13.77776148,
        "meta_eccentricity": 0.0198682,
        "meta_inclination": 99.213,
        "meta_ra_of_asc_node": 85.2693,
        "meta_arg_of_pericenter": 72.8435,
        "meta_mean_anomaly": 306.3548,
        "meta_ephemeris_type": 0,
        "meta_classification_type": "U",
        "meta_norad_cat_id": 29858,
        "meta_element_set_no": 999,
        "meta_rev_at_epoch": 94510,
        "meta_bstar": 0.0016634,
        "meta_mean_motion_dot": 1.884e-05,
        "meta_mean_motion_ddot": 0,
        "tle_line1": "1 29858U 99025FC  25343.54779534  .00001884  00000+0  16634-2 0  9990",
        "tle_line2": "2 29858  99.2130  85.2693 0198682  72.8435 306.3548 13.77776148945103"
      },
      "geometry": {
        "type": "Point",
        "coordinates": [
          81.46358943588619,
          30.56321339967912
        ]
      }
    },
    {
      "type": "Feature",
      "properties": {
        "norad_id": 29859,
        "name": "FENGYUN 1C DEB",
        "group": "fengyun-1c-debris",
        "lat": -28.420191436414783,
        "lon": -175.259115121813,
        "alt_km": 1075.5407491523538,
        "timestamp": "2025-12-11T07:02:24.002040+00:00",
        "meta_object_name": "FENGYUN 1C DEB",
        "meta_object_id": "1999-025FD",
        "meta_epoch": "2025-12-10T11:57:35.820864",
        "meta_mean_motion": 13.74011353,
        "meta_eccentricity": 0.02950734,
        "meta_inclination": 98.3354,
        "meta_ra_of_asc_node": 179.4957,
        "meta_arg_of_pericenter": 219.034,
        "meta_mean_anomaly": 138.9186,
        "meta_ephemeris_type": 0,
        "meta_classification_type": "U",
        "meta_norad_cat_id": 29859,
        "meta_element_set_no": 999,
        "meta_rev_at_epoch": 93949,
        "meta_bstar": 0.0038333297,
        "meta_mean_motion_dot": 4.896e-05,
        "meta_mean_motion_ddot": 0,
        "tle_line1": "1 29859U 99025FD  25344.49833126  .00004896  00000+0  38333-2 0  9990",
        "tle_line2": "2 29859  98.3354 179.4957 0295073 219.0340 138.9186 13.74011353939492"
      },
      "geometry": {
        "type": "Point",
        "coordinates": [
          -175.259115121813,
          -28.420191436414783
        ]
      }
    },
    {
      "type": "Feature",
      "properties": {
        "norad_id": 29860,
        "name": "FENGYUN 1C DEB",
        "group": "fengyun-1c-debris",
        "lat": 80.567492528047,
        "lon": -94.76981138396897,
        "alt_km": 1008.3957817421424,
        "timestamp": "2025-12-11T07:02:24.002050+00:00",
        "meta_object_name": "FENGYUN 1C DEB",
        "meta_object_id": "1999-025FE",
        "meta_epoch": "2025-12-10T13:54:05.503104",
        "meta_mean_motion": 13.77511243,
        "meta_eccentricity": 0.0220994,
        "meta_inclination": 98.6175,
        "meta_ra_of_asc_node": 18.6901,
        "meta_arg_of_pericenter": 349.1456,
        "meta_mean_anomaly": 162.8983,
        "meta_ephemeris_type": 0,
        "meta_classification_type": "U",
        "meta_norad_cat_id": 29860,
        "meta_element_set_no": 999,
        "meta_rev_at_epoch": 94109,
        "meta_bstar": 0.0033281,
        "meta_mean_motion_dot": 3.931e-05,
        "meta_mean_motion_ddot": 0,
        "tle_line1": "1 29860U 99025FE  25344.57923036  .00003931  00000+0  33281-2 0  9997",
        "tle_line2": "2 29860  98.6175  18.6901 0220994 349.1456 162.8983 13.77511243941090"
      },
      "geometry": {
        "type": "Point",
        "coordinates": [
          -94.76981138396897,
          80.567492528047
        ]
      }
    },
    {
      "type": "Feature",
      "properties": {
        "norad_id": 29865,
        "name": "FENGYUN 1C DEB",
        "group": "fengyun-1c-debris",
        "lat": -0.9811526295876148,
        "lon": -103.965108356088,
        "alt_km": 692.1389598574324,
        "timestamp": "2025-12-11T07:02:24.002060+00:00",
        "meta_object_name": "FENGYUN 1C DEB",
        "meta_object_id": "1999-025FK",
        "meta_epoch": "2025-12-10T13:46:45.154272",
        "meta_mean_motion": 14.82553419,
        "meta_eccentricity": 0.0116258,
        "meta_inclination": 98.9197,
        "meta_ra_of_asc_node": 255.0793,
        "meta_arg_of_pericenter": 148.168,
        "meta_mean_anomaly": 335.4491,
        "meta_ephemeris_type": 0,
        "meta_classification_type": "U",
        "meta_norad_cat_id": 29865,
        "meta_element_set_no": 999,
        "meta_rev_at_epoch": 726,
        "meta_bstar": 0.00095332,
        "meta_mean_motion_dot": 8.564e-05,
        "meta_mean_motion_ddot": 0,
        "tle_line1": "1 29865U 99025FK  25344.57413373  .00008564  00000+0  95332-3 0  9993",
        "tle_line2": "2 29865  98.9197 255.0793 0116258 148.1680 335.4491 14.82553419  7263"
      },
      "geometry": {
        "type": "Point",
        "coordinates": [
          -103.965108356088,
          -0.9811526295876148
        ]
      }
    },
    {
      "type": "Feature",
      "properties": {
        "norad_id": 29866,
        "name": "FENGYUN 1C DEB",
        "group": "fengyun-1c-debris",
        "lat": -44.86461396421993,
        "lon": 142.9739319661543,
        "alt_km": 549.9089135314352,
        "timestamp": "2025-12-11T07:02:24.002071+00:00",
        "meta_object_name": "FENGYUN 1C DEB",
        "meta_object_id": "1999-025FL",
        "meta_epoch": "2025-12-10T21:56:53.500704",
        "meta_mean_motion": 14.64202023,
        "meta_eccentricity": 0.01942817,
        "meta_inclination": 98.0376,
        "meta_ra_of_asc_node": 330.6887,
        "meta_arg_of_pericenter": 220.654,
        "meta_mean_anomaly": 168.821,
        "meta_ephemeris_type": 0,
        "meta_classification_type": "U",
        "meta_norad_cat_id": 29866,
        "meta_element_set_no": 999,
        "meta_rev_at_epoch": 300,
        "meta_bstar": 0.00042895642,
        "meta_mean_motion_dot": 2.917e-05,
        "meta_mean_motion_ddot": 0,
        "tle_line1": "1 29866U 99025FL  25344.91450811  .00002917  00000+0  42896-3 0  9993",
        "tle_line2": "2 29866  98.0376 330.6887 0194281 220.6540 168.8210 14.64202023  3008"
      },
      "geometry": {
        "type": "Point",
        "coordinates": [
          142.9739319661543,
          -44.86461396421993
        ]
      }
    },
    {
      "type": "Feature",
      "properties": {
        "norad_id": 29868,
        "name": "FENGYUN 1C DEB",
        "group": "fengyun-1c-debris",
        "lat": -9.71994183534435,
        "lon": 32.42253973012708,
        "alt_km": 507.2302833132153,
        "timestamp": "2025-12-11T07:02:24.002081+00:00",
        "meta_object_name": "FENGYUN 1C DEB",
        "meta_object_id": "1999-025FN",
        "meta_epoch": "2025-12-10T22:08:02.462208",
        "meta_mean_motion": 14.78383849,
        "meta_eccentricity": 0.01970302,
        "meta_inclination": 97.9503,
        "meta_ra_of_asc_node": 30.6842,
        "meta_arg_of_pericenter": 9.9331,
        "meta_mean_anomaly": 167.3043,
        "meta_ephemeris_type": 0,
        "meta_classification_type": "U",
        "meta_norad_cat_id": 29868,
        "meta_element_set_no": 999,
        "meta_rev_at_epoch": 268,
        "meta_bstar": 0.00095848864,
        "meta_mean_motion_dot": 9.624e-05,
        "meta_mean_motion_ddot": 0,
        "tle_line1": "1 29868U 99025FN  25344.92225072  .00009624  00000+0  95849-3 0  9993",
        "tle_line2": "2 29868  97.9503  30.6842 0197030   9.9331 167.3043 14.78383849  2681"
      },
      "geometry": {
        "type": "Point",
        "coordinates": [
          32.42253973012708,
          -9.71994183534435
        ]
      }
    }
  ]
}